     3.04           N: GNSS NAV DATA    M: MIXED            RINEX VERSION / TYPE
ssrcrin-15.6.1x                         20250101 193000 UTC PGM / RUN BY / DATE 
    18                                                      LEAP SECONDS        
                                                            END OF HEADER       
S27 2025 01 01 19 42 56 5.122274160385E-08 4.547473508865E-11 3.301540000000E+05
     2.416046720000E+04 4.458125000000E-03-1.250000000000E-07 3.100000000000E+01
     3.460125472000E+04-3.223750000000E-03-1.625000000000E-07 4.096000000000E+03
     5.322280000000E+01 4.082800000000E-02-3.125000000000E-07 1.900000000000E+01
S28 2025 01 01 19 42 56 3.254972398281E-07 5.456968210638E-11 3.301540000000E+05
     5.131887680000E+03 2.055625000000E-03-1.000000000000E-07 6.300000000000E+01
     4.186790160000E+04-1.125625000000E-03-3.750000000000E-08 3.276700000000E+04
     2.960800000000E+00-1.624000000000E-03 0.000000000000E+00 1.900000000000E+01
G30 2025 01 01 20 00 00-2.485234290361E-04 8.299139153678E-12 0.000000000000E+00
     9.400000000000E+01 7.437500000000E+00 5.221646073947E-09-2.104071886605E+00
     1.154839992523E-07 7.240724749863E-03 7.912516593933E-06 5.153750131607E+03
     3.312000000000E+05 1.266598701477E-07 1.275882098114E+00-4.470348358154E-08
     9.351778415908E-01 2.112187500000E+02-2.454629725866E+00-8.128910030303E-09
     7.564600810273E-10 1.000000000000E+00 2.347000000000E+03 0.000000000000E+00
     2.000000000000E+00 0.000000000000E+00 3.725290298462E-09 9.400000000000E+01
     3.302280000000E+05 4.000000000000E+00
S36 2025 01 01 19 43 44 0.000000000000E+00 0.000000000000E+00 3.302290000000E+05
     4.200368800000E+04 0.000000000000E+00 0.000000000000E+00 6.300000000000E+01
     3.674846960000E+03 0.000000000000E+00 0.000000000000E+00 3.276700000000E+04
     0.000000000000E+00 0.000000000000E+00 0.000000000000E+00 1.060000000000E+02
S21 2025 01 01 19 43 44 0.000000000000E+00 0.000000000000E+00 3.302390000000E+05
     4.200468400000E+04 0.000000000000E+00 0.000000000000E+00 6.300000000000E+01
    -3.674932960000E+03 0.000000000000E+00 0.000000000000E+00 3.276700000000E+04
     0.000000000000E+00 0.000000000000E+00 0.000000000000E+00 2.600000000000E+01
S23 2025 01 01 19 44 00 0.000000000000E+00 0.000000000000E+00 3.302420000000E+05
     3.866796400000E+04 0.000000000000E+00 0.000000000000E+00 6.300000000000E+01
     1.681330800000E+04 0.000000000000E+00 0.000000000000E+00 3.276700000000E+04
     0.000000000000E+00 0.000000000000E+00 0.000000000000E+00 3.900000000000E+01
S44 2025 01 01 19 44 00 8.414499461651E-07 0.000000000000E+00 3.302720000000E+05
     7.324155680000E+03-1.296875000000E-03-7.500000000000E-08 6.300000000000E+01
     4.149426536000E+04-1.310625000000E-03 2.000000000000E-07 3.276700000000E+04
     1.905101200000E+03 2.108800000000E-02-5.000000000000E-06 6.000000000000E+01
